MOLNIYA 2-9             
1 07276U 74026A   18039.41460558  .00000114  00000-0  13016-2 0  9994
2 07276  62.8880 130.1231 6827657 288.5891  12.4405  2.45097284210380
MOLNIYA 2-10            
1 07376U 74056A   18038.89778752  .00000713  00000-0 -38902-2 0  9994
2 07376  63.1570 268.4339 7218778 294.1976   9.1002  2.01047489318379
MOLNIYA 1-S             
1 07392U 74060A   18039.76643267 -.00000022  00000-0  00000-0 0  9995
2 07392   8.7242 304.6599 0006121 172.8457   6.4670  1.00199990103584
MOLNIYA 1-29            
1 07780U 75036A   18039.21201907  .00000463  00000-0 -24550-3 0  9999
2 07780  61.7559  94.7488 7430360 276.8432  11.6357  2.00595449313718
MOLNIYA 2-13            
1 08015U 75063A   18039.22177555  .00004522  00000-0  45493-3 0  9991
2 08015  61.7262  92.9353 7515968 276.0308  11.2632  2.01188695312076
MOLNIYA 2-14            
1 08195U 75081A   18039.03939275  .00000797  00000-0  56602-3 0  9998
2 08195  61.8562  61.5379 7508165 281.0978  10.1126  2.00836782310798
MOLNIYA 1-32            
1 08601U 76006A   18039.69643921 -.00000408  00000-0  99360-2 0  9997
2 08601  62.1901 175.9637 7168648 270.5050  15.4058  2.00082193 20913
MOLNIYA 2-17            
1 09829U 77010A   18038.03808558  .00001741  00000-0  31399-2 0  9990
2 09829  61.2818 191.6843 7359721 262.3748  16.7027  2.00653450297516
MOLNIYA 1-36            
1 09880U 77021A   18039.37685500  .00000315  00000-0 -22969-2 0  9997
2 09880  61.5805 160.9840 7297983 271.1177  14.2123  2.00358094197507
MOLNIYA 3-7             
1 09941U 77032A   18039.40810677  .00000826  00000-0  51453-3 0  9993
2 09941  61.3097 163.6596 7397445 266.9184  14.7756  2.00754911298842
MOLNIYA 3-8             
1 10455U 77105A   18039.02683639 -.00000498  00000-0 -31856-2 0  9991
2 10455  62.0964 229.0019 7219136 270.4102  15.0213  2.00435535295232
MOLNIYA 1-40            
1 10925U 78055A   18038.60953483 -.00000643  00000-0 -19347-2 0  9991
2 10925  62.3697 258.6415 7258348 274.7155  13.4424  2.00632846290775
MOLNIYA 3-10            
1 11057U 78095A   18039.84736652  .00063939  34985-6  17003-3 0  9994
2 11057  62.5004 299.5675 6123413 277.0158  21.3785  3.97780926318768
MOLNIYA 3-13            
1 11896U 80063A   18038.91724090 -.00000331  00000-0  11021-3 0  9990
2 11896  62.6805   1.0314 7474553 268.7047  13.6862  2.00683804275238
MOLNIYA 1-49            
1 12156U 81009A   18039.48261429 -.00001068  00000-0  00000-0 0  9996
2 12156  63.8880  42.3040 7154866 247.5534 339.1012  2.05709102188776
MOLNIYA 1-52            
1 13012U 81123A   18039.57944207 -.00000696  00000-0 -93749-1 0  9997
2 13012  64.2920 133.3383 6815318 252.0496 255.2866  2.00810955264675
MOLNIYA 1-53            
1 13070U 82015A   18039.64987590  .00000445  00000-0  14145-3 0  9997
2 13070  62.4561 105.0169 7359542 265.2531 312.5189  2.00581609263357
MOLNIYA 3-20            
1 13875U 83015A   18039.58742368 -.00000894  00000-0 -78372-1 0  9996
2 13875  63.7238 197.4138 6745280 260.5120 163.2684  2.00629423191869
MOLNIYA 1-56            
1 13890U 83019A   18039.44468714 -.00001004  00000-0  00000-0 0  9997
2 13890  63.3529 224.4722 6896190 263.4352  54.4929  1.99916764254835
MOLNIYA 1-62            
1 15214U 84089A   18038.97598636 -.00000921  00000-0 -42892-2 0  9996
2 15214  62.8621 243.8716 7169388 263.4803  17.9795  1.97943573212774
MOLNIYA 1-63            
1 15429U 84124A   18039.91622139 -.00001136  00000-0  00000-0 0  9996
2 15429  64.0806 326.3713 6917217 271.5431 130.5483  2.00806283242874
MOLNIYA 3-24            
1 15738U 85040A   18039.31548075 -.00000046  00000-0 -76896-2 0  9995
2 15738  64.4258 341.7613 6538480 261.1377 343.1498  2.55629582263211
MOLNIYA 3-27            
1 16393U 85117A   18039.07701657  .00000156  00000-0  24187-1 0  9993
2 16393  64.7396 250.8920 6549258 270.2465 206.3763  2.12398076240427
MOLNIYA 1-69            
1 17078U 86089A   18039.58103531  .00000360  00000-0 -18104-1 0  9996
2 17078  64.3836 351.9155 6991530 272.4220 344.8374  2.00574304228893
MOLNIYA 3-31            
1 17328U 87008A   18039.18995338 -.00000317  00000-0 -27918-1 0  9992
2 17328  64.1078 295.6856 6920132 268.4377 349.2823  2.00589390223992
MOLNIYA 1-71            
1 18946U 88017A   18038.23963701  .00000163  00000-0 -12198-1 0  9996
2 18946  63.8659 303.7643 7047714 267.1005 346.5367  2.00569161219123
MOLNIYA 1-75            
1 19807U 89014A   18039.04487959 -.00000589  00000-0  48092-1 0  9991
2 19807  63.8378 112.9897 6846348 276.3318  15.9438  2.00492570212192
MOLNIYA 1-80            
1 21118U 91012A   18039.80888950 -.00000796  00000-0  39508-1 0  9992
2 21118  63.2596 155.0435 6831128 291.0261  11.7567  2.05250970198374
MOLNIYA 3-40            
1 21196U 91022A   18038.28082532 -.00000998  00000-0  44123-1 0  9995
2 21196  63.4531 146.4446 6815862 289.0491  12.3681  2.03020467197395
MOLNIYA 1-81            
1 21426U 91043A   18039.40406425  .00000144  00000-0  00000-0 0  9997
2 21426  63.6595 170.1314 6772158 278.8281  15.6309  2.00590091195263
MOLNIYA 3-41            
1 21706U 91065A   18039.31635910  .00000774  00000-0 -77491-2 0  9995
2 21706  64.4702 343.1700 7051492 272.6625 233.9147  2.04350108194418
MOLNIYA 3-42            
1 22178U 92067A   18039.29354624 -.00000090  00000-0  00000-0 0  9990
2 22178  64.0007  55.6495 6901672 286.0520  12.6164  2.20435136 45125
MOLNIYA 1-86            
1 22671U 93035A   18039.77734240  .00000097  00000-0  16294-3 0  9994
2 22671  63.0754  76.9145 4859707 343.8751   4.9644  5.62572304262863
MOLNIYA 1-87            
1 22949U 93079A   18037.38086194  .00001442  00000-0 -66811-3 0  9999
2 22949  63.0313 280.5242 7296563 289.6126   9.6449  2.02852234 42645
MOLNIYA 1-88            
1 23420U 94081A   18039.63308293  .00000069  00000-0 -70420-4 0  9991
2 23420  63.5303 218.4443 6151924 300.5348  12.9008  3.34495369 60529
MOLNIYA 3-47            
1 23642U 95042A   18033.87076085  .00001053  00000-0 -85433-2 0  9998
2 23642  62.9252 260.6178 7234218 288.8158  10.1142  2.01923908164815
MOLNIYA 1-90            
1 24960U 97054A   18039.44534329  .00000197  00000-0  11790-3 0  9999
2 24960  62.6689 205.6354 6497977 293.7434  12.9084  3.18678558157419
MOLNIYA 1-91            
1 25485U 98054A   18039.57338865  .00002207  00000-0  56820-3 0  9991
2 25485  62.0210  78.9945 7505549 275.7023 307.4392  2.00748532141870
MOLNIYA 3-50            
1 25847U 99036A   18039.52586480  .00000269  00000-0 -27458-2 0  9998
2 25847  62.1153 213.7714 7195578 268.6390  15.8067  2.00660090136210
